DMSP 5D-3 F16 (USA 172) 
1 28054U 03048A   26156.71657522  .00000017  00000+0  32388-4 0  9994
2 28054  98.9893 180.4687 0007155 170.5789 308.0154 14.14482030167862
METEOSAT-9 (MSG-2)      
1 28912U 05049B   26155.75621891  .00000133  00000+0  00000+0 0  9993
2 28912   9.3326  54.2885 0002326  39.0161 117.8525  1.00267492  6873
DMSP 5D-3 F17 (USA 191) 
1 29522U 06050A   26156.71445584  .00000051  00000+0  48476-4 0  9997
2 29522  98.7378 163.5193 0011328  88.6859 271.5612 14.14991318 10805
FENGYUN 3A              
1 32958U 08026A   26156.55849556  .00000085  00000+0  61041-4 0  9998
2 32958  98.6881  97.6094 0009091 154.7297 205.4326 14.19568645933756
GOES 14                 
1 35491U 09033A   26156.35465316 -.00000229  00000+0  00000+0 0  9992
2 35491   1.6591  83.1855 0002095   0.7745  86.0901  1.00115245  6475
DMSP 5D-3 F18 (USA 210) 
1 35951U 09057A   26156.68506343  .00000284  00000+0  17009-3 0  9992
2 35951  98.9033 137.4796 0009913 286.1679  73.8403 14.14890300857965
EWS-G2 (GOES 15)        
1 36411U 10008A   26156.74390627  .00000031  00000+0  00000+0 0  9994
2 36411   1.2459  83.0496 0005510  36.3567 106.1375  1.00275941 59522
COMS 1                  
1 36744U 10032A   26152.73864208 -.00000334  00000+0  00000+0 0  9993
2 36744   4.7700  75.5552 0001064 351.7830 216.9341  1.00271905 50939
FENGYUN 3B              
1 37214U 10059A   26156.72115785  .00000269  00000+0  16230-3 0  9999
2 37214  98.9618 202.6867 0021318 217.3276 281.4165 14.14839048805804
SUOMI NPP               
1 37849U 11061A   26156.71033387  .00000089  00000+0  63210-4 0  9994
2 37849  98.7950  97.6651 0002136  31.4609 328.6695 14.19514931756814
METEOSAT-10 (MSG-3)     
1 38552U 12035B   26156.06416943  .00000006  00000+0  00000+0 0  9991
2 38552   4.6426  61.0733 0001803 337.4560 238.2428  1.00275627 50731
METOP-B                 
1 38771U 12049A   26156.71582750  .00000110  00000+0  70242-4 0  9997
2 38771  98.6508 208.4434 0002865  45.8048 314.3364 14.21429572711638
INSAT-3D                
1 39216U 13038B   26156.73144140 -.00000327  00000+0  00000+0 0  9991
2 39216   1.8959  82.6853 0000857 349.8323 214.4552  1.00268552 46966
FENGYUN 3C              
1 39260U 13052A   26156.73604362  .00000109  00000+0  76462-4 0  9990
2 39260  98.4974 131.1371 0015730  58.7338 301.5375 14.15752424656949
METEOR-M 2              
1 40069U 14037A   26156.74240444  .00000082  00000+0  56877-4 0  9999
2 40069  98.5113 132.8867 0007063  71.8596 288.3350 14.21458083617699
HIMAWARI-8              
1 40267U 14060A   26156.73369477 -.00000263  00000+0  00000+0 0  9996
2 40267   0.0143  36.3840 0000930  56.7208 205.8642  1.00271982 42646
FENGYUN 2G              
1 40367U 14090A   26156.65428056 -.00000291  00000+0  00000+0 0  9991
2 40367   5.6094  72.9555 0003554 153.6086   2.6058  1.00278137 41886
METEOSAT-11 (MSG-4)     
1 40732U 15034A   26156.70767862  .00000076  00000+0  00000+0 0  9993
2 40732   3.1737  71.1731 0001660   4.4419  82.6651  1.00276730  7106
ELEKTRO-L 2             
1 41105U 15074A   26156.06124635 -.00000106  00000+0  00000+0 0  9991
2 41105   6.6638  70.6705 0001332 281.5102 268.8844  1.00272317 38380
SENTINEL-3A             
1 41335U 16011A   26156.71526718  .00000122  00000+0  68446-4 0  9998
2 41335  98.6251 224.2632 0001319 105.3786 254.7540 14.26736806536424
INSAT-3DR               
1 41752U 16054A   26156.72043557 -.00000064  00000+0  00000+0 0  9997
2 41752   0.0768  87.9285 0010305 187.0580 312.5205  1.00270854 35709
HIMAWARI-9              
1 41836U 16064A   26156.73369477 -.00000262  00000+0  00000+0 0  9994
2 41836   0.0406 170.3894 0000973 296.0773 192.5835  1.00274459 35091
GOES 16                 
1 41866U 16071A   26156.68508152 -.00000078  00000+0  00000+0 0  9999
2 41866   0.3106  85.6419 0000615 319.3634 351.0798  1.00271085 34982
FENGYUN 4A              
1 41882U 16077A   26156.73031475 -.00000344  00000+0  00000+0 0  9994
2 41882   2.2935  80.4072 0008169 151.5875  48.8214  1.00275710 34819
CYGFM05                 
1 41884U 16078A   26156.69818866  .00025122  00000+0  34694-3 0  9999
2 41884  34.9576 336.6395 0007305  33.0886 327.0294 15.56138209526964
CYGFM04                 
1 41885U 16078B   26156.70406058  .00031599  00000+0  36478-3 0  9995
2 41885  34.9333 304.8611 0006073  78.6785 281.4623 15.60843678527203
CYGFM02                 
1 41886U 16078C   26156.66252329  .00036452  00000+0  37565-3 0  9992
2 41886  34.9412 300.0044 0007059  80.6478 279.5047 15.63720154527368
CYGFM01                 
1 41887U 16078D   26155.92233525  .00027778  00000+0  37461-3 0  9994
2 41887  34.9409 342.9283 0007301  19.1712 340.9286 15.56759527526795
CYGFM08                 
1 41888U 16078E   26156.67078743  .00030214  00000+0  36871-3 0  9990
2 41888  34.9440 317.8495 0008071  60.3606 299.7922 15.59387253527179
CYGFM07                 
1 41890U 16078G   26156.69468235  .00029359  00000+0  35709-3 0  9991
2 41890  34.9455 306.0425 0006459  78.0337 282.1112 15.59492064527204
CYGFM03                 
1 41891U 16078H   26156.66562676  .00030602  00000+0  37227-3 0  9993
2 41891  34.9409 308.1768 0006052  63.5174 296.6172 15.59485044527176
